SKYSAT-C13              
1 43802U 18099AW  26068.66503718  .00089861  00000+0  55860-3 0  9990
2 43802  96.9402 116.3001 0003986 199.1701 160.9417 15.76710150407164
STARLINK-36703          
1 67650U 26022C   26068.08916991  .00131435  00000+0  86642-3 0  9996
2 67650  97.2848 102.0261 0002181 103.8801 256.2707 15.75246048  5454
